      2.10          N: GNSS NAV DATA                        RINEX VERSION / TYPE
fic2rin                                 05/20/2019 00:19:39 PGM / RUN BY / DATE
                                                            END OF HEADER
21 19  5 19  6  0  0.0-1.900065690279e-04 7.389644451905e-12 0.000000000000e+00
    1.380000000000e+02-4.071875000000e+01 4.337323524077e-09-1.991214240443e+00
   -1.765787601471e-06 2.460586244706e-02 1.264177262783e-05 5.153742822647e+03
    2.160000000000e+04 3.185123205185e-07-2.916391044467e+00 4.488974809647e-07
    9.487258088895e-01 1.196250000000e+02-1.442681003900e+00-7.548171554500e-09
    5.396653363703e-10 1.000000000000e+00 2.054000000000e+03 0.000000000000e+00
    3.400000000000e+00 0.000000000000e+00-1.024454832077e-08 1.380000000000e+02
    1.440000000000e+04 4.000000000000e+00
19 19  5 19  6  0  0.0-3.172513097525e-04 4.547473508865e-12 0.000000000000e+00
    1.060000000000e+02-1.223437500000e+02 3.919806132802e-09-1.531766926161e+00
   -6.001442670822e-06 9.612943627872e-03 6.804242730141e-06 5.153635187149e+03
    2.160000000000e+04 6.519258022308e-08 2.478203464287e+00 2.067536115646e-07
    9.820605200197e-01 2.538125000000e+02 1.401031187830e+00-7.854612890440e-09
   -1.967939115420e-10 1.000000000000e+00 2.054000000000e+03 0.000000000000e+00
    3.400000000000e+00 0.000000000000e+00-1.536682248116e-08 1.060000000000e+02
    1.440000000000e+04 4.000000000000e+00
32 19  5 19  6  0  0.0-8.134078234434e-05 1.682565198280e-11 0.000000000000e+00
    1.050000000000e+02-3.125000000000e+01 4.823772358052e-09 2.652667857464e+00
   -1.687556505203e-06 3.049788181670e-03 8.579343557358e-06 5.153584651947e+03
    2.160000000000e+04-2.048909664154e-08-7.708982021587e-01-7.823109626770e-08
    9.567212062499e-01 2.117500000000e+02-2.502111526303e+00-8.013905239892e-09
   -7.139583106580e-10 1.000000000000e+00 2.054000000000e+03 0.000000000000e+00
    2.400000000000e+00 0.000000000000e+00 4.656612873077e-10 1.050000000000e+02
    1.440000000000e+04 4.000000000000e+00
20 19  5 19  6  0  0.0 5.248175002635e-04 2.273736754432e-13 0.000000000000e+00
    1.070000000000e+02 3.015625000000e+01 5.730595845176e-09-5.289445820593e-01
    1.512467861176e-06 4.402066464536e-03 5.815178155899e-06 5.153678045273e+03
    2.160000000000e+04 7.450580596924e-09-1.931701708936e+00-3.352761268616e-08
    9.302527713447e-01 2.512500000000e+02 2.360537039626e+00-8.645360113950e-09
    5.453798601174e-10 1.000000000000e+00 2.054000000000e+03 0.000000000000e+00
    2.400000000000e+00 0.000000000000e+00-8.847564458847e-09 1.070000000000e+02
    1.440000000000e+04 4.000000000000e+00
 4 19  5 19  6  0  0.0 1.614401116967e-04 3.183231456205e-12 0.000000000000e+00
    1.990000000000e+02-2.515625000000e+01 4.688409576792e-09-9.876357564107e-01
   -1.382082700729e-06 4.271658835933e-04 8.605420589447e-06 5.153754310608e+03
    2.160000000000e+04-9.499490261078e-08-7.324286646624e-01-2.793967723846e-08
    9.598620313864e-01 2.100937500000e+02-1.522239601950e+00-8.031763126602e-09
   -6.789568527068e-10 1.000000000000e+00 2.054000000000e+03 0.000000000000e+00
    1.920000000000e+02 6.300000000000e+01-8.847564458847e-09 7.110000000000e+02
    1.443000000000e+04 4.000000000000e+00
 1 19  5 19  8  0  0.0-1.980410888791e-05-8.981260180008e-12 0.000000000000e+00
    4.900000000000e+01-4.112500000000e+01 3.910520031713e-09 8.969765447535e-01
   -2.186745405197e-06 8.815912296996e-03 1.180917024612e-05 5.153657541275e+03
    2.880000000000e+04-4.470348358154e-08-2.852431193723e+00 9.499490261078e-08
    9.758589118464e-01 1.616875000000e+02 7.007998637673e-01-7.694963383255e-09
    3.896590880079e-10 1.000000000000e+00 2.054000000000e+03 0.000000000000e+00
    2.400000000000e+00 0.000000000000e+00 5.587935447693e-09 4.900000000000e+01
    2.160000000000e+04 4.000000000000e+00
 2 19  5 19  8  0  0.0-2.166838385165e-04-9.094947017729e-12 0.000000000000e+00
    1.050000000000e+02-5.337500000000e+01 4.343038047824e-09 1.177377385534e+00
   -2.816319465637e-06 1.888604974374e-02 1.191347837448e-05 5.153716110229e+03
    2.880000000000e+04-3.706663846970e-07-2.920970626128e+00-2.458691596985e-07
    9.549829538218e-01 1.488437500000e+02-1.741449850559e+00-8.083193840326e-09
    3.914448766789e-10 1.000000000000e+00 2.054000000000e+03 0.000000000000e+00
    2.400000000000e+00 0.000000000000e+00-2.048909664154e-08 1.050000000000e+02
    2.160000000000e+04 4.000000000000e+00
 5 19  5 19  8  0  0.0 8.740462362766e-07-1.136868377216e-13 0.000000000000e+00
    2.600000000000e+01 2.859375000000e+01 5.294863409457e-09-2.421795803779e+00
    1.186504960060e-06 5.625800928101e-03 5.275011062622e-06 5.153679626465e+03
    2.880000000000e+04 8.568167686462e-08-1.836990301974e+00-8.195638656616e-08
    9.493158915259e-01 2.718437500000e+02 7.078259242938e-01-8.316060683022e-09
    4.685909472653e-10 1.000000000000e+00 2.054000000000e+03 0.000000000000e+00
    2.400000000000e+00 0.000000000000e+00-1.117587089539e-08 2.600000000000e+01
    2.160000000000e+04 4.000000000000e+00
 3 19  5 19  8  0  0.0 1.877192407846e-04-5.684341886081e-13 0.000000000000e+00
    1.110000000000e+02 2.237500000000e+01 5.032709632557e-09-3.689582385345e-02
    1.210719347000e-06 2.156345406547e-03 5.694106221199e-06 5.153777034760e+03
    2.880000000000e+04 1.676380634308e-08-1.810244408563e+00 5.587935447693e-09
    9.624253023169e-01 2.748750000000e+02 5.858019172526e-01-8.207127574092e-09
    4.200174954146e-10 1.000000000000e+00 2.054000000000e+03 0.000000000000e+00
    2.400000000000e+00 0.000000000000e+00 1.862645149231e-09 1.110000000000e+02
    2.160000000000e+04 4.000000000000e+00
 6 19  5 19  8  0  0.0 2.016373910010e-04-1.011812855722e-11 0.000000000000e+00
    9.800000000000e+01-4.121875000000e+01 3.783729036073e-09 1.084834031943e+00
   -1.993030309677e-06 1.564806676470e-03 1.152977347374e-05 5.153589130402e+03
    2.880000000000e+04 2.421438694000e-08-2.860709070324e+00-9.126961231232e-08
    9.755127532446e-01 1.629687500000e+02-1.086219312960e+00-7.593173429009e-09
    4.925205154564e-10 1.000000000000e+00 2.054000000000e+03 0.000000000000e+00
    2.400000000000e+00 0.000000000000e+00 4.190951585770e-09 9.800000000000e+01
    2.160000000000e+04 4.000000000000e+00
17 19  5 19  8  0  0.0 5.716551095247e-05 6.252776074689e-12 0.000000000000e+00
    7.000000000000e+00-1.344062500000e+02 3.739084319299e-09 2.986805269297e+00
   -6.835907697678e-06 1.283000991680e-02 5.695968866348e-06 5.153745910645e+03
    2.880000000000e+04 1.043081283569e-07 2.431880119420e+00-7.450580596924e-08
    9.841933741188e-01 2.804062500000e+02-1.713252391313e+00-7.610317000250e-09
   -2.771544017362e-10 1.000000000000e+00 2.054000000000e+03 0.000000000000e+00
    2.400000000000e+00 0.000000000000e+00-1.117587089539e-08 7.000000000000e+00
    2.160000000000e+04 4.000000000000e+00
10 19  5 19  8  0  0.0 4.214746877551e-05-1.091393642128e-11 0.000000000000e+00
    2.000000000000e+01 2.234375000000e+01 4.977350183757e-09-1.182978833028e+00
    1.177191734314e-06 4.548841156065e-03 5.306676030159e-06 5.153651954651e+03
    2.880000000000e+04 8.195638656616e-08-1.813480194638e+00-1.303851604462e-08
    9.624489225922e-01 2.753437500000e+02-2.693823158947e+00-8.185340952306e-09
    4.771627328860e-10 1.000000000000e+00 2.054000000000e+03 0.000000000000e+00
    2.400000000000e+00 0.000000000000e+00 1.862645149231e-09 2.000000000000e+01
    2.160000000000e+04 4.000000000000e+00
 9 19  5 19  8  0  0.0 4.085600376129e-04-7.162270776462e-12 0.000000000000e+00
    2.100000000000e+01-3.431250000000e+01 5.054853412077e-09-2.902623159620e+00
   -1.667067408562e-06 1.228796783835e-03 8.039176464081e-06 5.153671995163e+03
    2.880000000000e+04 3.166496753693e-08-7.776174390248e-01 1.490116119385e-08
    9.524493157599e-01 2.222812500000e+02 1.753604422034e+00-8.171054642938e-09
   -5.771668984609e-10 1.000000000000e+00 2.054000000000e+03 0.000000000000e+00
    2.400000000000e+00 0.000000000000e+00 1.396983861923e-09 2.100000000000e+01
    2.160000000000e+04 4.000000000000e+00
 7 19  5 19  8  0  0.0-2.715410664678e-05-7.503331289627e-12 0.000000000000e+00
    7.500000000000e+01 9.684375000000e+01 4.502330397276e-09 3.048008090000e-01
    5.261972546577e-06 1.268985110801e-02 1.039728522301e-05 5.153757818222e+03
    2.880000000000e+04-1.117587089539e-08 2.979516372131e-01 1.825392246246e-07
    9.560237425006e-01 1.741875000000e+02-2.466651961772e+00-8.131052976708e-09
   -1.796503403006e-10 1.000000000000e+00 2.054000000000e+03 0.000000000000e+00
    2.400000000000e+00 0.000000000000e+00-1.117587089539e-08 7.500000000000e+01
    2.160000000000e+04 4.000000000000e+00
25 19  5 19  8  0  0.0-7.576909847558e-04-3.751665644813e-12 0.000000000000e+00
    2.200000000000e+01 6.650000000000e+01 4.616620872219e-09-8.213571988813e-01
    3.490597009659e-06 8.451467147097e-03 9.331852197647e-07 5.153712516785e+03
    2.880000000000e+04 9.126961231232e-08 1.333701808114e+00 1.173466444016e-07
    9.700889230232e-01 3.655625000000e+02 8.972537765070e-01-8.546427421578e-09
    9.071806448581e-11 1.000000000000e+00 2.054000000000e+03 0.000000000000e+00
    2.400000000000e+00 0.000000000000e+00 6.053596735001e-09 2.200000000000e+01
    2.160000000000e+04 4.000000000000e+00
30 19  5 19  8  0  0.0-1.073800958693e-04-7.162270776462e-12 0.000000000000e+00
    1.900000000000e+01 9.909375000000e+01 4.723411034743e-09 2.935083570926e-01
    5.029141902924e-06 4.011724027805e-03 1.029483973980e-05 5.153596565247e+03
    2.880000000000e+04 2.421438694000e-08 3.262345250232e-01 3.725290298462e-08
    9.414677617398e-01 1.664687500000e+02-2.971203307961e+00-8.131767292176e-09
   -1.346484657919e-10 1.000000000000e+00 2.054000000000e+03 0.000000000000e+00
    2.400000000000e+00 0.000000000000e+00 3.725290298462e-09 1.900000000000e+01
    2.160000000000e+04 4.000000000000e+00
